[
  {
    "name": "STARLINK-6302",
    "noradId": "56396",
    "line1": "1 56396U 23061Y   26179.76113583  .00000741  00000+0  36440-4 0  9992",
    "line2": "2 56396  43.0007 279.5921 0001300 269.9750  90.0953 15.27575220168997"
  },
  {
    "name": "STARLINK-6271",
    "noradId": "56397",
    "line1": "1 56397U 23061Z   26179.66764231 -.00004848  00000+0 -16681-3 0  9992",
    "line2": "2 56397  43.0080 280.6037 0002658 260.1192  99.9360 15.27560415173840"
  },
  {
    "name": "STARLINK-6288",
    "noradId": "56398",
    "line1": "1 56398U 23061AA  26179.96114878  .00000390  00000+0  23685-4 0  9991",
    "line2": "2 56398  43.0030 278.5086 0001183 276.5349  83.5368 15.27575434173892"
  },
  {
    "name": "STARLINK-6277",
    "noradId": "56399",
    "line1": "1 56399U 23061AB  26179.69190398 -.00000252  00000+0  35695-6 0  9997",
    "line2": "2 56399  43.0028 279.9353 0001265 270.1020  89.9687 15.27569098173858"
  },
  {
    "name": "STARLINK-6267",
    "noradId": "56400",
    "line1": "1 56400U 23061AC  26179.96500331  .00000898  00000+0  42161-4 0  9991",
    "line2": "2 56400  43.0025 278.5417 0001257 270.6545  89.4163 15.27575582173895"
  },
  {
    "name": "STARLINK-6287",
    "noradId": "56404",
    "line1": "1 56404U 23061AG  26178.67912250 -.00000475  00000+0 -77255-5 0  9995",
    "line2": "2 56404  43.0043 286.0791 0001511 277.3962  82.6718 15.27572104173694"
  },
  {
    "name": "STARLINK-6285",
    "noradId": "56405",
    "line1": "1 56405U 23061AH  26179.96757344  .00001527  00000+0  65011-4 0  9993",
    "line2": "2 56405  43.0013 278.5565 0001255 266.5754  93.4954 15.27576866173894"
  },
  {
    "name": "STARLINK-6283",
    "noradId": "56406",
    "line1": "1 56406U 23061AJ  26179.73943103  .00000350  00000+0  22270-4 0  9992",
    "line2": "2 56406  43.0041 280.2736 0002477 290.4425  69.6161 15.27583515173854"
  },
  {
    "name": "STARLINK-6282",
    "noradId": "56407",
    "line1": "1 56407U 23061AK  26179.72144318  .00000476  00000+0  26810-4 0  9996",
    "line2": "2 56407  43.0031 280.1463 0001170 270.8236  89.2481 15.27578417173859"
  },
  {
    "name": "STARLINK-6289",
    "noradId": "56408",
    "line1": "1 56408U 23061AL  26179.75084876  .00001172  00000+0  52128-4 0  9997",
    "line2": "2 56408  43.0026 279.4927 0001547 270.8934  89.1740 15.27578593173866"
  },
  {
    "name": "STARLINK-6241",
    "noradId": "56409",
    "line1": "1 56409U 23061AM  26179.66248526  .00000746  00000+0  36647-4 0  9996",
    "line2": "2 56409  43.0065 280.5613 0001635 271.8867  88.1797 15.27572669173846"
  },
  {
    "name": "STARLINK-6281",
    "noradId": "56410",
    "line1": "1 56410U 23061AN  26179.54826789  .00000897  00000+0  42121-4 0  9999",
    "line2": "2 56410  43.0009 280.5650 0001666 272.7603  87.3058 15.27576635173836"
  },
  {
    "name": "STARLINK-6279",
    "noradId": "56411",
    "line1": "1 56411U 23061AP  26179.73172610  .00000966  00000+0  44631-4 0  9993",
    "line2": "2 56411  43.0028 280.2236 0001613 289.0794  70.9883 15.27574748173858"
  },
  {
    "name": "STARLINK-6278",
    "noradId": "56412",
    "line1": "1 56412U 23061AQ  26179.69317968  .00000154  00000+0  15129-4 0  9995",
    "line2": "2 56412  43.0025 279.9333 0001348 269.4611  90.6086 15.27573177173853"
  },
  {
    "name": "STARLINK-6258",
    "noradId": "56413",
    "line1": "1 56413U 23061AR  26179.54712796  .00002050  00000+0  84001-4 0  9990",
    "line2": "2 56413  43.0042 281.4136 0001765 272.3435  87.7215 15.27578711173829"
  },
  {
    "name": "STARLINK-5136",
    "noradId": "56414",
    "line1": "1 56414U 23061AS  26179.71501664  .00001017  00000+0  46471-4 0  9991",
    "line2": "2 56414  43.0022 280.0908 0001289 276.2905  83.7799 15.27579990173852"
  },
  {
    "name": "STARLINK-6260",
    "noradId": "56416",
    "line1": "1 56416U 23061AU  26179.95824316  .00001213  00000+0  53619-4 0  9991",
    "line2": "2 56416  43.0022 271.4410 0001163 267.5941  92.4777 15.27571402173976"
  },
  {
    "name": "STARLINK-6261",
    "noradId": "56417",
    "line1": "1 56417U 23061AV  26179.96244089  .00000380  00000+0  23329-4 0  9995",
    "line2": "2 56417  43.0027 278.5112 0001301 270.3666  89.7036 15.27569010173899"
  },
  {
    "name": "STARLINK-5356",
    "noradId": "56418",
    "line1": "1 56418U 23061AW  26179.59916821  .00002172  00000+0  88394-4 0  9999",
    "line2": "2 56418  43.0017 273.0402 0001516 267.1947  92.8731 15.27587379173924"
  },
  {
    "name": "STARLINK-5350",
    "noradId": "56419",
    "line1": "1 56419U 23061AX  26179.65350011  .00001069  00000+0  48391-4 0  9997",
    "line2": "2 56419  43.0024 280.4929 0001477 271.2219  88.8463 15.27556799173843"
  },
  {
    "name": "STARLINK-6272",
    "noradId": "56420",
    "line1": "1 56420U 23061AY  26180.39149536  .00000963  00000+0  44467-4 0  9992",
    "line2": "2 56420  42.9993 268.6670 0001001 278.6884  81.3854 15.27602995174046"
  },
  {
    "name": "STARLINK-6270",
    "noradId": "56421",
    "line1": "1 56421U 23061AZ  26179.95004131  .00000531  00000+0  28811-4 0  9990",
    "line2": "2 56421  43.0032 274.7834 0000901 268.3421  91.7327 15.27576307173938"
  },
  {
    "name": "STARLINK-6236",
    "noradId": "56422",
    "line1": "1 56422U 23061BA  26179.94410785  .00000367  00000+0  22863-4 0  9994",
    "line2": "2 56422  43.0015 271.3295 0001708 273.0096  87.0560 15.27573636173974"
  },
  {
    "name": "STARLINK-6239",
    "noradId": "56423",
    "line1": "1 56423U 23061BB  26179.93768230  .00000608  00000+0  31602-4 0  9994",
    "line2": "2 56423  43.0018 271.2812 0001249 270.7392  89.3316 15.27575153173975"
  },
  {
    "name": "STARLINK-6242",
    "noradId": "56424",
    "line1": "1 56424U 23061BC  26179.95181726  .00001989  00000+0  81816-4 0  9991",
    "line2": "2 56424  43.0002 271.3885 0000821 276.0305  84.0453 15.27566952173979"
  },
  {
    "name": "STARLINK-6224",
    "noradId": "56425",
    "line1": "1 56425U 23061BD  26179.94795718  .00007807  00000+0  29326-3 0  9995",
    "line2": "2 56425  43.0019 271.3563 0001127 289.0344  71.0385 15.27543664173973"
  },
  {
    "name": "STARLINK-5352",
    "noradId": "56426",
    "line1": "1 56426U 23061BE  26179.96337860  .00001514  00000+0  64528-4 0  9991",
    "line2": "2 56426  43.0008 271.4622 0001249 268.8569  91.2140 15.27576496173970"
  },
  {
    "name": "STARLINK-5724",
    "noradId": "56427",
    "line1": "1 56427U 23061BF  26179.96594856  .00000210  00000+0  17167-4 0  9991",
    "line2": "2 56427  43.0031 271.4817 0001441 285.4963  74.5729 15.27573761173979"
  },
  {
    "name": "STARLINK-6238",
    "noradId": "56428",
    "line1": "1 56428U 23061BG  26179.95567014  .00000406  00000+0  24269-4 0  9995",
    "line2": "2 56428  42.9995 271.4128 0001157 270.1068  89.9651 15.27576783173974"
  },
  {
    "name": "STARLINK-6264",
    "noradId": "56429",
    "line1": "1 56429U 23061BH  26179.95952432  .00000767  00000+0  37411-4 0  9991",
    "line2": "2 56429  43.0017 271.4407 0001229 267.8320  92.2391 15.27575149173979"
  }
]