OBJECT_NAME,OBJECT_ID,EPOCH,MEAN_MOTION,ECCENTRICITY,INCLINATION,RA_OF_ASC_NODE,ARG_OF_PERICENTER,MEAN_ANOMALY,EPHEMERIS_TYPE,CLASSIFICATION_TYPE,NORAD_CAT_ID,ELEMENT_SET_NO,REV_AT_EPOCH,BSTAR,MEAN_MOTION_DOT,MEAN_MOTION_DDOT
STARLINK-6302,2023-061Y,2026-06-28T18:16:02.135712,15.27575220,.00013008,43.0007,279.5921,269.9750,90.0953,0,U,56396,999,16899,.36439859E-4,.741E-5,0
STARLINK-6271,2023-061Z,2026-06-28T16:01:24.295584,15.27560415,.00026589,43.0080,280.6037,260.1192,99.9360,0,U,56397,999,17384,-.16681083E-3,-.4848E-4,0
STARLINK-6288,2023-061AA,2026-06-28T23:04:03.254592,15.27575434,.00011838,43.0030,278.5086,276.5349,83.5368,0,U,56398,999,17389,.2368487E-4,.39E-5,0
STARLINK-6277,2023-061AB,2026-06-28T16:36:20.503872,15.27569098,.00012659,43.0028,279.9353,270.1020,89.9687,0,U,56399,999,17385,.356952E-6,-.252E-5,0
STARLINK-6267,2023-061AC,2026-06-28T23:09:36.285984,15.27575582,.00012571,43.0025,278.5417,270.6545,89.4163,0,U,56400,999,17389,.42160601E-4,.898E-5,0
STARLINK-6287,2023-061AG,2026-06-27T16:17:56.184000,15.27572104,.00015111,43.0043,286.0791,277.3962,82.6718,0,U,56404,999,17369,-.7725492E-5,-.475E-5,0
STARLINK-6285,2023-061AH,2026-06-28T23:13:18.345216,15.27576866,.00012556,43.0013,278.5565,266.5754,93.4954,0,U,56405,999,17389,.65011004E-4,.1527E-4,0
STARLINK-6283,2023-061AJ,2026-06-28T17:44:46.840992,15.27583515,.00024775,43.0041,280.2736,290.4425,69.6161,0,U,56406,999,17385,.22269757E-4,.35E-5,0
STARLINK-6282,2023-061AK,2026-06-28T17:18:52.690752,15.27578417,.00011708,43.0031,280.1463,270.8236,89.2481,0,U,56407,999,17385,.26809571E-4,.476E-5,0
STARLINK-6289,2023-061AL,2026-06-28T18:01:13.332864,15.27578593,.0001547,43.0026,279.4927,270.8934,89.1740,0,U,56408,999,17386,.52128433E-4,.1172E-4,0
STARLINK-6241,2023-061AM,2026-06-28T15:53:58.726464,15.27572669,.00016351,43.0065,280.5613,271.8867,88.1797,0,U,56409,999,17384,.36646593E-4,.746E-5,0
STARLINK-6281,2023-061AN,2026-06-28T13:09:30.345696,15.27576635,.00016668,43.0009,280.5650,272.7603,87.3058,0,U,56410,999,17383,.42120502E-4,.897E-5,0
STARLINK-6279,2023-061AP,2026-06-28T17:33:41.135040,15.27574748,.00016135,43.0028,280.2236,289.0794,70.9883,0,U,56411,999,17385,.44631033E-4,.966E-5,0
STARLINK-6278,2023-061AQ,2026-06-28T16:38:10.724352,15.27573177,.00013484,43.0025,279.9333,269.4611,90.6086,0,U,56412,999,17385,.1512942E-4,.154E-5,0
STARLINK-6258,2023-061AR,2026-06-28T13:07:51.855744,15.27578711,.00017658,43.0042,281.4136,272.3435,87.7215,0,U,56413,999,17382,.84000505E-4,.205E-4,0
STARLINK-5136,2023-061AS,2026-06-28T17:09:37.437696,15.27579990,.00012899,43.0022,280.0908,276.2905,83.7799,0,U,56414,999,17385,.46470661E-4,.1017E-4,0
STARLINK-6260,2023-061AU,2026-06-28T22:59:52.209024,15.27571402,.00011631,43.0022,271.4410,267.5941,92.4777,0,U,56416,999,17397,.53619465E-4,.1213E-4,0
STARLINK-6261,2023-061AV,2026-06-28T23:05:54.892896,15.27569010,.00013018,43.0027,278.5112,270.3666,89.7036,0,U,56417,999,17389,.23328792E-4,.38E-5,0
STARLINK-5356,2023-061AW,2026-06-28T14:22:48.133344,15.27587379,.00015169,43.0017,273.0402,267.1947,92.8731,0,U,56418,999,17392,.88394393E-4,.2172E-4,0
STARLINK-5350,2023-061AX,2026-06-28T15:41:02.409504,15.27556799,.00014775,43.0024,280.4929,271.2219,88.8463,0,U,56419,999,17384,.48390629E-4,.1069E-4,0
STARLINK-6272,2023-061AY,2026-06-29T09:23:45.199104,15.27602995,.0001001,42.9993,268.6670,278.6884,81.3854,0,U,56420,999,17404,.44467E-4,.963E-5,0
STARLINK-6270,2023-061AZ,2026-06-28T22:48:03.569184,15.27576307,.00009017,43.0032,274.7834,268.3421,91.7327,0,U,56421,999,17393,.28810885E-4,.531E-5,0
STARLINK-6236,2023-061BA,2026-06-28T22:39:30.918240,15.27573636,.00017089,43.0015,271.3295,273.0096,87.0560,0,U,56422,999,17397,.22863309E-4,.367E-5,0
STARLINK-6239,2023-061BB,2026-06-28T22:30:15.750720,15.27575153,.00012492,43.0018,271.2812,270.7392,89.3316,0,U,56423,999,17397,.31602144E-4,.608E-5,0
STARLINK-6242,2023-061BC,2026-06-28T22:50:37.011264,15.27566952,.00008212,43.0002,271.3885,276.0305,84.0453,0,U,56424,999,17397,.81815548E-4,.1989E-4,0
STARLINK-6224,2023-061BD,2026-06-28T22:45:03.500352,15.27543664,.00011276,43.0019,271.3563,289.0344,71.0385,0,U,56425,999,17397,.29325706E-3,.7807E-4,0
STARLINK-5352,2023-061BE,2026-06-28T23:07:15.911040,15.27576496,.00012495,43.0008,271.4622,268.8569,91.2140,0,U,56426,999,17397,.64527687E-4,.1514E-4,0
STARLINK-5724,2023-061BF,2026-06-28T23:10:57.955584,15.27573761,.00014419,43.0031,271.4817,285.4963,74.5729,0,U,56427,999,17397,.17167202E-4,.21E-5,0
STARLINK-6238,2023-061BG,2026-06-28T22:56:09.900096,15.27576783,.00011579,42.9995,271.4128,270.1068,89.9651,0,U,56428,999,17397,.24269436E-4,.406E-5,0
STARLINK-6264,2023-061BH,2026-06-28T23:01:42.901248,15.27575149,.00012293,43.0017,271.4407,267.8320,92.2391,0,U,56429,999,17397,.3741074E-4,.767E-5,0
